{"n":40039,"c":9,"l1":"1 40039U 2014-033 26137.39365536  0.00001464  00000-0  137397-4 0  9998","l2":"2 40039  97.9634  81.0260 0012760  45.6950 314.5314 14.95520624646036","nm":"PERSEUS-M1"},{"n":40042,"c":9,"l1":"1 40042U 2014-033 26137.49795897  0.00011026  00000-0  358105-4 0  9997","l2":"2 40042  98.0957 160.8821 0005589 245.7989 114.2667 15.32122709648891","nm":"POLYITAN-1"},{"n":40043,"c":9,"l1":"1 40043U 2014-033 26137.39172277  0.00001358  00000-0  162062-4 0  9990","l2":"2 40043  97.7796 288.1192 0049653 174.1011 186.0799 14.85019018641054","nm":"TIGRISAT"},{"n":40045,"c":9,"l1":"1 40045U 2014-033 26137.69609720  0.00003917  00000-0  333490-4 0  9991","l2":"2 40045  97.7222 304.9826 0040217 116.5408 243.9945 14.97747275642051","nm":"AEROCUBE 6A"},{"n":40046,"c":9,"l1":"1 40046U 2014-033 26137.72786564  0.00004357  00000-0  357530-4 0  9998","l2":"2 40046  97.7172 304.7412 0038431 109.8170 250.7203 14.99167037642193","nm":"AEROCUBE 6B"},{"n":40055,"c":9,"l1":"1 40055U 2014-034 26137.61839865  0.00000550  00000-0  779860-5 0  9996","l2":"2 40055  98.3161  11.8044 0014055 107.5131 252.7617 14.81202798640007","nm":"CANX-4"},{"n":40056,"c":9,"l1":"1 40056U 2014-034 26137.48207938  0.00000556  00000-0  786384-5 0  9997","l2":"2 40056  98.3163  11.7047 0014054 108.0971 252.1773 14.81219706630798","nm":"CANX-5"},{"n":40074,"c":9,"l1":"1 40074U 2014-037 26137.81807465  0.00006235  00000-0  357310-4 0  9990","l2":"2 40074  98.4238 137.9137 0000323 131.1304 228.9952 15.13021741643963","nm":"UKUBE-1"},{"n":40119,"c":6,"l1":"1 40119U 2014-049 26137.77614715  0.00001218  00000-0  118260-4 0  9997","l2":"2 40119  97.9064 249.5503 0013540 205.2842 154.7717 14.94466895636908","nm":"BRITE-PL2 (HEWELIUSZ)"},{"n":40965,"c":9,"l1":"1 40965U 2015-058 26137.86112904  0.00002192  00000-0  202170-4 0  9996","l2":"2 40965  64.7683 356.9212 0129899  75.1935 286.3526 14.91269030361137","nm":"AEROCUBE 5C"},{"n":40966,"c":9,"l1":"1 40966U 2015-058 26137.80971058  0.00003063  00000-0  253290-4 0  9991","l2":"2 40966  64.7627 339.9477 0119670  73.8835 287.5414 14.95474118361419","nm":"AEROCUBE 7"},{"n":40967,"c":9,"l1":"1 40967U 2015-058 26136.95964132  0.00002238  00000-0  209080-4 0  9993","l2":"2 40967  64.7768  16.0156 0129128  68.8392 292.6463 14.90773374108910","nm":"FOX-1A (AO-85)"},{"n":40968,"c":9,"l1":"1 40968U 2015-058 26137.32323242  0.00003096  00000-0  255863-4 0  9990","l2":"2 40968  64.7761 355.5486 0117659  65.4694 295.8632 14.95649294112045","nm":"SINOD-D 1"},{"n":40970,"c":9,"l1":"1 40970U 2015-058 26137.65793895  0.00043052  00000-0  648800-4 0  9997","l2":"2 40970  64.7523 208.9158 0033182  27.8032 332.4875 15.53904117112137","nm":"SNAP-3 ALICE"},{"n":40971,"c":9,"l1":"1 40971U 2015-058 26137.64516478  0.00002194  00000-0  206450-4 0  9990","l2":"2 40971  64.7772  10.1665 0130930  70.6006 290.9204 14.90402078109001","nm":"LMRST-SAT"},{"n":40972,"c":9,"l1":"1 40972U 2015-058 26137.60699794  0.00045225  00000-0  652340-4 0  9995","l2":"2 40972  64.7439 200.0345 0033549  31.5257 328.7887 15.55063424114260","nm":"SNAP-3 EDDIE"},{"n":40973,"c":9,"l1":"1 40973U 2015-058 26136.61744396  0.00002794  00000-0  239530-4 0  9991","l2":"2 40973  64.7692 351.1555 0123036  72.4933 288.9582 14.94030179110087","nm":"PROPCUBE 3"},{"n":40974,"c":9,"l1":"1 40974U 2015-058 26137.48740491  0.00007618  00000-0  379851-4 0  9991","l2":"2 40974  64.7601 272.8422 0078674  60.3211 300.5715 15.15533064110963","nm":"BISONSAT"},{"n":40975,"c":9,"l1":"1 40975U 2015-058 26137.76401772  0.00004193  00000-0  296090-4 0  9997","l2":"2 40975  64.7650 316.0051 0105072  67.9972 293.2269 15.01968488109650","nm":"SNAP-3 JIMI"},{"n":40976,"c":9,"l1":"1 40976U 2015-058 26137.70632441  0.00002000  00000-0  196970-4 0  9992","l2":"2 40976  64.7761  29.6914 0129730  72.8600 288.6669 14.89034120111724","nm":"PROPCUBE 1 (FLORA)"},{"n":40977,"c":9,"l1":"1 40977U 2015-058 26137.64795397  0.00002866  00000-0  249730-4 0  9999","l2":"2 40977  64.7736  11.1666 0118203  70.3384 291.0439 14.93765228110190","nm":"SINOD-D 3"},{"n":41340,"c":9,"l1":"1 41340U 2016-012 26137.79861698  0.00139695  00000-0  729010-4 0  9994","l2":"2 41340  30.9884 299.0907 0004802  67.1367 292.9797 15.79340876565984","nm":"HORYU-4"},{"n":41849,"c":9,"l1":"1 41849U 2016-067 26137.63367883  0.00026557  00000-0  446640-4 0  9995","l2":"2 41849  97.9936  23.7484 0007185 107.9773 252.2261 15.51703672522954","nm":"RAVAN"},{"n":41850,"c":9,"l1":"1 41850U 2016-067 26137.12501770  0.00003747  00000-0  180925-4 0  9993","l2":"2 41850  98.0712   1.5757 0001577  56.1369 304.0014 15.19352679521167","nm":"CELTEE 1"},{"n":41851,"c":9,"l1":"1 41851U 2016-067 26137.52196749  0.00001513  00000-0  986421-5 0  9999","l2":"2 41851  98.0728 348.2039 0014749 217.3624 142.6579 15.09518363520545","nm":"OPTICUBE 04"},{"n":41852,"c":9,"l1":"1 41852U 2016-067 26137.36511249  0.00005333  00000-0  223993-4 0  9999","l2":"2 41852  98.0719   5.1972 0002212 221.4466 138.6602 15.23932248521375","nm":"AEROCUBE 8D"},{"n":41853,"c":9,"l1":"1 41853U 2016-067 26137.85457674  0.00005467  00000-0  227770-4 0  9990","l2":"2 41853  98.0590   2.9911 0005952 151.4037 208.7526 15.24176683521447","nm":"AEROCUBE 8C"},{"n":42846,"c":9,"l1":"1 42846U 2017-042 26137.43551051  0.00001808  00000-0  127687-4 0  9996","l2":"2 42846  97.4038 299.9917 0012218 210.3708 149.6813 15.06082946482432","nm":"CORVUS BC2"},{"n":42847,"c":9,"l1":"1 42847U 2017-042 26137.69934159  0.00001636  00000-0  115420-4 0  9990","l2":"2 42847  97.4069 301.0392 0011784 184.6233 175.4888 15.06254569482501","nm":"CORVUS BC1"},{"n":43016,"c":9,"l1":"1 43016U 2017-073 26137.40502618  0.00017905  00000-0  499832-4 0  9991","l2":"2 43016  97.4671  19.7092 0110901  23.6146 337.0130 15.30727134461755","nm":"MAKERSAT 0"}